[{"OBJECT_NAME":"STARLINK-1695","OBJECT_ID":"2020-062E","EPOCH":"2026-03-10T00:00:02.999808","MEAN_MOTION":15.54321965,"ECCENTRICITY":0.00056929,"INCLINATION":53.0499,"RA_OF_ASC_NODE":335.097,"ARG_OF_PERICENTER":127.3586,"MEAN_ANOMALY":314.4015,"EPHEMERIS_TYPE":0,"CLASSIFICATION_TYPE":"U","NORAD_CAT_ID":46329,"ELEMENT_SET_NO":999,"REV_AT_EPOCH":591,"BSTAR":0.0015936543,"MEAN_MOTION_DOT":0.00107125,"MEAN_MOTION_DDOT":0},{"OBJECT_NAME":"STARLINK-1777","OBJECT_ID":"2020-088A","EPOCH":"2026-03-09T21:53:32.612064","MEAN_MOTION":15.51775072,"ECCENTRICITY":0.00015349,"INCLINATION":53.0539,"RA_OF_ASC_NODE":282.6272,"ARG_OF_PERICENTER":245.3461,"MEAN_ANOMALY":114.7388,"EPHEMERIS_TYPE":0,"CLASSIFICATION_TYPE":"U","NORAD_CAT_ID":47122,"ELEMENT_SET_NO":999,"REV_AT_EPOCH":29212,"BSTAR":0.0018721438,"MEAN_MOTION_DOT":0.00114877,"MEAN_MOTION_DDOT":0}]
